IRIDIUM 8 [+]           
1 24792U 97020A   17296.47104265  .00000074  00000-0  19448-4 0  9997
2 24792  86.3935 265.0309 0002303  85.9408 274.2051 14.34216329 71584
IRIDIUM 7 [+]           
1 24793U 97020B   17296.46409844  .00000070  00000-0  17794-4 0  9996
2 24793  86.3941 265.3262 0002352  89.2014 270.9451 14.34231482 71581
IRIDIUM 6 [+]           
1 24794U 97020C   17296.45840970  .00000063  00000-0  15344-4 0  9996
2 24794  86.3937 265.2550 0002191  86.6779 273.4667 14.34213990 71587
IRIDIUM 5 [+]           
1 24795U 97020D   17296.45204912  .00000036  00000-0  57052-5 0  9990
2 24795  86.3931 265.2719 0002144  88.3567 271.7874 14.34212031 71666
IRIDIUM 4 [-]           
1 24796U 97020E   17296.44302306  .00000092  00000-0  25375-4 0  9990
2 24796  86.3935 264.1180 0002236  87.3487  26.4257 14.35182562 71704
IRIDIUM 914 [-]         
1 24836U 97030A   17296.43923020  .00000137  00000-0  38168-4 0  9991
2 24836  86.3899 280.5425 0003723  73.2818 286.8789 14.38785021 67389
IRIDIUM 12 [+]          
1 24837U 97030B   17296.48943168 -.00000031  00000-0 -18046-4 0  9990
2 24837  86.3913 296.4435 0002195  86.9990  22.9723 14.34217121 65335
IRIDIUM 10 [+]          
1 24839U 97030D   17296.47696241 -.00000060  00000-0 -28425-4 0  9992
2 24839  86.3913 296.4276 0002197  86.7765  24.2109 14.34216356 65343
IRIDIUM 13 [+]          
1 24840U 97030E   17296.47451647 -.00000039  00000-0 -20998-4 0  9996
2 24840  86.3923 296.5576 0001467 102.1747 257.9613 14.34216513 65364
IRIDIUM 16 [-]          
1 24841U 97030F   17296.42033116  .00000133  00000-0  38526-4 0  9998
2 24841  86.3995 296.2976 0001698 162.7457 197.3798 14.36743162 65998
IRIDIUM 911 [-]         
1 24842U 97030G   17296.42855590  .00000148  00000-0  36476-4 0  9995
2 24842  86.4421 297.0029 0015571  33.0587 327.1585 14.44989642 71461
IRIDIUM 15 [+]          
1 24869U 97034A   17296.49889353  .00000061  00000-0  13373-4 0  9994
2 24869  86.4172 328.4038 0001888  88.8442 271.2972 14.38609949 62388
IRIDIUM 17 [-]          
1 24870U 97034B   17296.47439966  .00000128  00000-0  37332-4 0  9990
2 24870  86.3949 326.4273 0003395 121.0534 239.0997 14.35781368 62581
IRIDIUM 920 [-]         
1 24871U 97034C   17296.41660260  .00000110  00000-0  28998-4 0  9997
2 24871  86.3943 312.3231 0009566 280.4740  79.5381 14.39494196 64792
IRIDIUM 18 [+]          
1 24872U 97034D   17296.49258079  .00000033  00000-0  41278-5 0  9998
2 24872  86.4198 328.4395 0001650  85.6967 274.4419 14.38609222 62363
IRIDIUM 921 [-]         
1 24873U 97034E   17296.28415108  .00001331  00000-0  76385-4 0  9992
2 24873  86.3960   5.4277 0005279 259.3495 100.7149 15.11609656107441
IRIDIUM 26 [-]          
1 24903U 97043A   17296.29950308  .00000174  00000-0  53769-4 0  9998
2 24903  86.4023 201.1682 0001914  85.0260 275.1155 14.35280374 56340
IRIDIUM 25 [+]          
1 24904U 97043B   17296.30570316  .00000221  00000-0  72021-4 0  9993
2 24904  86.4014 201.8737 0001955  79.7675 280.3741 14.34217037 56191
IRIDIUM 46 [+]          
1 24905U 97043C   17296.31838143  .00000021  00000-0  49673-6 0  9997
2 24905  86.4047 201.8689 0001646  64.6793 295.4574 14.34219877 56190
IRIDIUM 23 [+]          
1 24906U 97043D   17296.53195066  .00000240  00000-0  78640-4 0  9999
2 24906  86.4026 201.8490 0002048  78.3176 336.5186 14.34216965 56238
IRIDIUM 22 [+]          
1 24907U 97043E   17296.35644202  .00000228  00000-0  74372-4 0  9995
2 24907  86.4024 202.5365 0002070  79.9236 280.2193 14.34218987 56201
DUMMY MASS 1 [-]        
1 24925U 97048A   17296.53768186  .00000102  00000-0  87056-5 0  9993
2 24925  86.3362 344.2443 0005365 324.9890  35.0981 14.85151491 90633
DUMMY MASS 2 [-]        
1 24926U 97048B   17295.72015512  .00000088  00000-0  70909-5 0  9994
2 24926  86.3365 345.7579 0006534 335.9367  24.1550 14.84919339 90355
IRIDIUM 29 [-]          
1 24944U 97051A   17296.38068203  .00000058  00000-0  13654-4 0  9996
2 24944  86.3990 233.2321 0002318  82.1352 278.0107 14.34628179 52817
IRIDIUM 32 [+]          
1 24945U 97051B   17296.38521155  .00000187  00000-0  59772-4 0  9991
2 24945  86.3985 233.4793 0002210  79.5650 280.5795 14.34216962 52790
IRIDIUM 33 [-]          
1 24946U 97051C   17296.40632682  .00000111  00000-0  32805-4 0  9998
2 24946  86.3905 233.0416 0007803 170.0411 190.0940 14.33573547 52405
IRIDIUM 28 [-]          
1 24948U 97051E   17296.38127946  .00000143  00000-0  42887-4 0  9995
2 24948  86.3995 232.3878 0001919  91.1237 269.0180 14.35575612 52973
IRIDIUM 30 [-]          
1 24949U 97051F   17271.33813138  .24952974 -19063-5  38201-3 0  9992
2 24949  86.3452 238.9858 0025131 154.2013 206.3664 16.46254047 49862
IRIDIUM 31 [+]          
1 24950U 97051G   17296.40092826  .00000023  00000-0  11047-5 0  9991
2 24950  86.4247 233.5723 0001994  76.9640 283.1781 14.38596301 52808
IRIDIUM 19 [+]          
1 24965U 97056A   17296.42664093 -.00000012  00000-0 -11457-4 0  9999
2 24965  86.3933 265.0618 0002173  82.6200 277.5243 14.34216118 50937
IRIDIUM 35 [+]          
1 24966U 97056B   17296.43932847 -.00000021  00000-0 -14498-4 0  9994
2 24966  86.3932 265.0495 0002166  82.4103 277.7339 14.34215636 50912
IRIDIUM 36 [-]          
1 24967U 97056C   17296.45114805  .00000102  00000-0  28570-4 0  9997
2 24967  86.3950 263.9998 0002389  89.3592 270.7879 14.35626907 51262
IRIDIUM 37 [+]          
1 24968U 97056D   17296.48372944  .00000115  00000-0  34026-4 0  9998
2 24968  86.3937 265.2208 0002257  85.5879 274.5574 14.34211247 50929
IRIDIUM 34 [+]          
1 24969U 97056E   17296.43297877 -.00000014  00000-0 -11992-4 0  9992
2 24969  86.3935 265.1794 0002198  83.7457 276.3989 14.34215762 50918
IRIDIUM 43 [-]          
1 25039U 97069A   17296.50007884  .00124569  29373-5  52938-3 0  9993
2 25039  86.3909 316.0609 0210026 267.2320  90.4890 15.59165982 46410
IRIDIUM 41 [+]          
1 25040U 97069B   17296.41454221  .00000053  00000-0  11839-4 0  9994
2 25040  86.3950 328.3667 0002086  95.9863 264.1570 14.34218684 44694
IRIDIUM 40 [-]          
1 25041U 97069C   17296.46466148  .00066840 -29564-6  52106-3 0  9991
2 25041  86.3805 314.3670 0238315 147.7685 213.8397 15.42487953 46649
IRIDIUM 39 [B]          
1 25042U 97069D   17296.50629209  .00000155  00000-0  37597-4 0  9998
2 25042  86.3903 324.4729 0017003 243.0140 116.9327 14.46190207 45260
IRIDIUM 38 [-]          
1 25043U 97069E   17296.50129611  .00000130  00000-0  37976-4 0  9995
2 25043  86.3946 325.3529 0001709 132.6208 227.5133 14.36056026 45140
IRIDIUM 42 [-]          
1 25077U 97077A   17296.46680528  .00000103  00000-0  29577-4 0  9993
2 25077  86.3956 328.2764 0001876 101.5972 258.5434 14.34505985 40581
IRIDIUM 44 [-]          
1 25078U 97077B   17296.44828417  .00000152  00000-0  43617-4 0  9998
2 25078  86.3936 317.5340 0002198 138.6675 221.4689 14.38152100 42067
IRIDIUM 45 [+]          
1 25104U 97082A   17296.43593918  .00000203  00000-0  65395-4 0  9992
2 25104  86.3983 233.5802 0001323  95.1143 265.0204 14.34217365 38754
IRIDIUM 24 [-]          
1 25105U 97082B   17296.26114295  .00000132  00000-0  35701-4 0  9990
2 25105  86.3962 181.4016 0009639 287.1956  72.8187 14.39882643 41281
IRIDIUM 47 [+]          
1 25106U 97082C   17296.32472714  .00000232  00000-0  75760-4 0  9991
2 25106  86.4003 201.7338 0002304  74.7242 285.4208 14.34216943 38733
IRIDIUM 49 [+]          
1 25108U 97082E   17296.42962353  .00000069  00000-0  17549-4 0  9996
2 25108  86.4013 201.7953 0002041  78.3896  37.4614 14.34214992 38752
IRIDIUM 52 [+]          
1 25169U 98010A   17296.43642695 -.00000030  00000-0 -17697-4 0  9994
2 25169  86.3918 296.7692 0002203  87.5483 272.5965 14.34217011 30163
IRIDIUM 56 [+]          
1 25170U 98010B   17296.43009274  .00000012  00000-0 -28317-5 0  9997
2 25170  86.3914 296.8859 0001941  92.4160 267.7258 14.34217450 30148
IRIDIUM 54 [+]          
1 25171U 98010C   17296.46181928 -.00000030  00000-0 -17630-4 0  9994
2 25171  86.3918 296.7802 0002211  87.0211 273.1237 14.34216896 30318
IRIDIUM 50 [+]          
1 25172U 98010D   17296.42374856 -.00000025  00000-0 -15884-4 0  9998
2 25172  86.3918 296.7517 0002265  85.3662 274.7792 14.34216856 30142
IRIDIUM 53 [+]          
1 25173U 98010E   17296.44278959 -.00000027  00000-0 -16843-4 0  9996
2 25173  86.3919 296.7505 0002206  87.4707 272.6741 14.34216857 30152
IRIDIUM 51 [S]          
1 25262U 98018A   17296.46468870  .00000021  00000-0  33735-6 0  9991
2 25262  86.3940 265.3963 0002196  72.7342 287.4094 14.34215883 29549
IRIDIUM 61 [+]          
1 25263U 98018B   17296.42030490 -.00000016  00000-0 -12737-4 0  9994
2 25263  86.3934 265.2129 0002169  82.2220 277.9222 14.34215048 25240
IRIDIUM 55 [+]          
1 25272U 98019A   17296.33773791  .00000168  00000-0  48280-4 0  9991
2 25272  86.4241 233.4078 0002116  71.6505 288.4923 14.38597773 24451
IRIDIUM 57 [-]          
1 25273U 98019B   17296.38518590  .00000132  00000-0  39841-4 0  9995
2 25273  86.3992 233.7041 0002292  84.0545 276.0912 14.34284334 24446
IRIDIUM 58 [+]          
1 25274U 98019C   17296.41352157  .00000179  00000-0  51961-4 0  9993
2 25274  86.4240 233.8852 0002168  74.2155 285.9282 14.38595054 24464
IRIDIUM 59 [+]          
1 25275U 98019D   17296.48034491  .00000197  00000-0  63306-4 0  9995
2 25275  86.3985 233.7075 0002292  80.1378 280.0076 14.34217627 24456
IRIDIUM 60 [+]          
1 25276U 98019E   17296.41692486  .00000187  00000-0  59566-4 0  9995
2 25276  86.3983 233.3490 0002167  81.8327 278.3115 14.34221833 24442
IRIDIUM 62 [+]          
1 25285U 98021A   17296.23887868  .00000173  00000-0  54678-4 0  9992
2 25285  86.3993 170.4207 0001960  80.0039 280.1378 14.34219636 23372
IRIDIUM 63 [-]          
1 25286U 98021B   17296.42991328  .00000124  00000-0  36713-4 0  9997
2 25286  86.4024 170.7565 0002134  82.1648  23.5018 14.34688846 23432
